{
  "type": "FeatureCollection",
  "features": [
    {
      "type": "Feature",
      "properties": {
        "norad_id": 30665,
        "name": "FENGYUN 1C DEB",
        "group": "fengyun-1c-debris",
        "lat": -59.84075526886509,
        "lon": -19.283680677244988,
        "alt_km": 877.5918245880621,
        "timestamp": "2025-12-18T17:50:15.234803+00:00",
        "meta_object_name": "FENGYUN 1C DEB",
        "meta_object_id": "1999-025APX",
        "meta_epoch": "2025-12-17T21:59:41.148672",
        "meta_mean_motion": 14.12369633,
        "meta_eccentricity": 0.00676021,
        "meta_inclination": 99.2077,
        "meta_ra_of_asc_node": 323.6576,
        "meta_arg_of_pericenter": 187.6799,
        "meta_mean_anomaly": 229.0199,
        "meta_ephemeris_type": 0,
        "meta_classification_type": "U",
        "meta_norad_cat_id": 30665,
        "meta_element_set_no": 999,
        "meta_rev_at_epoch": 96043,
        "meta_bstar": 0.0011508822,
        "meta_mean_motion_dot": 2.121e-05,
        "meta_mean_motion_ddot": 0,
        "tle_line1": "1 30665U 99025APX 25351.91644848  .00002121  00000+0  11509-2 0  9998",
        "tle_line2": "2 30665  99.2077 323.6576 0067602 187.6799 229.0199 14.12369633960438"
      },
      "geometry": {
        "type": "Point",
        "coordinates": [
          -19.283680677244988,
          -59.84075526886509
        ]
      }
    },
    {
      "type": "Feature",
      "properties": {
        "norad_id": 30666,
        "name": "FENGYUN 1C DEB",
        "group": "fengyun-1c-debris",
        "lat": -74.64816534619075,
        "lon": 121.7226010221154,
        "alt_km": 920.587561762306,
        "timestamp": "2025-12-18T17:50:15.234813+00:00",
        "meta_object_name": "FENGYUN 1C DEB",
        "meta_object_id": "1999-025APY",
        "meta_epoch": "2025-12-17T22:02:45.007872",
        "meta_mean_motion": 14.02559072,
        "meta_eccentricity": 0.00613254,
        "meta_inclination": 98.822,
        "meta_ra_of_asc_node": 335.3725,
        "meta_arg_of_pericenter": 129.8637,
        "meta_mean_anomaly": 285.3955,
        "meta_ephemeris_type": 0,
        "meta_classification_type": "U",
        "meta_norad_cat_id": 30666,
        "meta_element_set_no": 999,
        "meta_rev_at_epoch": 96183,
        "meta_bstar": 0.0002312231,
        "meta_mean_motion_dot": 3.2e-06,
        "meta_mean_motion_ddot": 0,
        "tle_line1": "1 30666U 99025APY 25351.91857648  .00000320  00000+0  23122-3 0  9997",
        "tle_line2": "2 30666  98.8220 335.3725 0061325 129.8637 285.3955 14.02559072961832"
      },
      "geometry": {
        "type": "Point",
        "coordinates": [
          121.7226010221154,
          -74.64816534619075
        ]
      }
    },
    {
      "type": "Feature",
      "properties": {
        "norad_id": 30668,
        "name": "FENGYUN 1C DEB",
        "group": "fengyun-1c-debris",
        "lat": 29.396511067069518,
        "lon": 60.71435123562145,
        "alt_km": 903.9396022068513,
        "timestamp": "2025-12-18T17:50:15.234823+00:00",
        "meta_object_name": "FENGYUN 1C DEB",
        "meta_object_id": "1999-025AQA",
        "meta_epoch": "2025-12-18T04:13:42.359808",
        "meta_mean_motion": 14.12361711,
        "meta_eccentricity": 0.00795356,
        "meta_inclination": 99.1311,
        "meta_ra_of_asc_node": 65.3356,
        "meta_arg_of_pericenter": 230.9903,
        "meta_mean_anomaly": 157.0494,
        "meta_ephemeris_type": 0,
        "meta_classification_type": "U",
        "meta_norad_cat_id": 30668,
        "meta_element_set_no": 999,
        "meta_rev_at_epoch": 96132,
        "meta_bstar": 0.0013057489,
        "meta_mean_motion_dot": 2.433e-05,
        "meta_mean_motion_ddot": 0,
        "tle_line1": "1 30668U 99025AQA 25352.17618472  .00002433  00000+0  13057-2 0  9990",
        "tle_line2": "2 30668  99.1311  65.3356 0079535 230.9903 157.0494 14.12361711961320"
      },
      "geometry": {
        "type": "Point",
        "coordinates": [
          60.71435123562145,
          29.396511067069518
        ]
      }
    },
    {
      "type": "Feature",
      "properties": {
        "norad_id": 30669,
        "name": "FENGYUN 1C DEB",
        "group": "fengyun-1c-debris",
        "lat": -58.219380422947374,
        "lon": 94.908318485147,
        "alt_km": 874.9378357622709,
        "timestamp": "2025-12-18T17:50:15.234833+00:00",
        "meta_object_name": "FENGYUN 1C DEB",
        "meta_object_id": "1999-025AQB",
        "meta_epoch": "2025-12-17T18:35:54.587904",
        "meta_mean_motion": 14.02743579,
        "meta_eccentricity": 0.011797,
        "meta_inclination": 98.6342,
        "meta_ra_of_asc_node": 288.1861,
        "meta_arg_of_pericenter": 162.3372,
        "meta_mean_anomaly": 228.5109,
        "meta_ephemeris_type": 0,
        "meta_classification_type": "U",
        "meta_norad_cat_id": 30669,
        "meta_element_set_no": 999,
        "meta_rev_at_epoch": 95524,
        "meta_bstar": 0.0010723484,
        "meta_mean_motion_dot": 1.722e-05,
        "meta_mean_motion_ddot": 0,
        "tle_line1": "1 30669U 99025AQB 25351.77493736  .00001722  00000+0  10723-2 0  9997",
        "tle_line2": "2 30669  98.6342 288.1861 0117970 162.3372 228.5109 14.02743579955245"
      },
      "geometry": {
        "type": "Point",
        "coordinates": [
          94.908318485147,
          -58.219380422947374
        ]
      }
    },
    {
      "type": "Feature",
      "properties": {
        "norad_id": 30670,
        "name": "FENGYUN 1C DEB",
        "group": "fengyun-1c-debris",
        "lat": 79.51698396232398,
        "lon": -18.906748532404272,
        "alt_km": 807.5893497552252,
        "timestamp": "2025-12-18T17:50:15.234843+00:00",
        "meta_object_name": "FENGYUN 1C DEB",
        "meta_object_id": "1999-025AQC",
        "meta_epoch": "2025-12-18T02:26:11.266656",
        "meta_mean_motion": 14.15819449,
        "meta_eccentricity": 0.00397537,
        "meta_inclination": 98.71,
        "meta_ra_of_asc_node": 36.4099,
        "meta_arg_of_pericenter": 54.6611,
        "meta_mean_anomaly": 0.3239,
        "meta_ephemeris_type": 0,
        "meta_classification_type": "U",
        "meta_norad_cat_id": 30670,
        "meta_element_set_no": 999,
        "meta_rev_at_epoch": 97228,
        "meta_bstar": 9.1385874e-05,
        "meta_mean_motion_dot": 1.38e-06,
        "meta_mean_motion_ddot": 0,
        "tle_line1": "1 30670U 99025AQC 25352.10151929  .00000138  00000+0  91386-4 0  9998",
        "tle_line2": "2 30670  98.7100  36.4099 0039753  54.6611   0.3239 14.15819449972285"
      },
      "geometry": {
        "type": "Point",
        "coordinates": [
          -18.906748532404272,
          79.51698396232398
        ]
      }
    },
    {
      "type": "Feature",
      "properties": {
        "norad_id": 30671,
        "name": "FENGYUN 1C DEB",
        "group": "fengyun-1c-debris",
        "lat": -32.20432964930597,
        "lon": 63.36852312802533,
        "alt_km": 855.1856337951476,
        "timestamp": "2025-12-18T17:50:15.234854+00:00",
        "meta_object_name": "FENGYUN 1C DEB",
        "meta_object_id": "1999-025AQD",
        "meta_epoch": "2025-12-17T11:04:57.036864",
        "meta_mean_motion": 13.95475762,
        "meta_eccentricity": 0.01258502,
        "meta_inclination": 99.2523,
        "meta_ra_of_asc_node": 56.1898,
        "meta_arg_of_pericenter": 20.3538,
        "meta_mean_anomaly": 353.9446,
        "meta_ephemeris_type": 0,
        "meta_classification_type": "U",
        "meta_norad_cat_id": 30671,
        "meta_element_set_no": 999,
        "meta_rev_at_epoch": 95261,
        "meta_bstar": 0.0010782417,
        "meta_mean_motion_dot": 1.519e-05,
        "meta_mean_motion_ddot": 0,
        "tle_line1": "1 30671U 99025AQD 25351.46177126  .00001519  00000+0  10782-2 0  9997",
        "tle_line2": "2 30671  99.2523  56.1898 0125850  20.3538 353.9446 13.95475762952614"
      },
      "geometry": {
        "type": "Point",
        "coordinates": [
          63.36852312802533,
          -32.20432964930597
        ]
      }
    },
    {
      "type": "Feature",
      "properties": {
        "norad_id": 30673,
        "name": "FENGYUN 1C DEB",
        "group": "fengyun-1c-debris",
        "lat": -40.251836265379204,
        "lon": 49.42771715500942,
        "alt_km": 925.6064985402636,
        "timestamp": "2025-12-18T17:50:15.234864+00:00",
        "meta_object_name": "FENGYUN 1C DEB",
        "meta_object_id": "1999-025AQF",
        "meta_epoch": "2025-12-17T22:20:34.112832",
        "meta_mean_motion": 14.03457426,
        "meta_eccentricity": 0.00527788,
        "meta_inclination": 98.9192,
        "meta_ra_of_asc_node": 40.9912,
        "meta_arg_of_pericenter": 128.3159,
        "meta_mean_anomaly": 49.3211,
        "meta_ephemeris_type": 0,
        "meta_classification_type": "U",
        "meta_norad_cat_id": 30673,
        "meta_element_set_no": 999,
        "meta_rev_at_epoch": 96604,
        "meta_bstar": -1.7809049e-05,
        "meta_mean_motion_dot": -7.1e-07,
        "meta_mean_motion_ddot": 0,
        "tle_line1": "1 30673U 99025AQF 25351.93095038 -.00000071  00000+0 -17809-4 0  9995",
        "tle_line2": "2 30673  98.9192  40.9912 0052778 128.3159  49.3211 14.03457426966043"
      },
      "geometry": {
        "type": "Point",
        "coordinates": [
          49.42771715500942,
          -40.251836265379204
        ]
      }
    }
  ]
}